[{"OBJECT_NAME":"BEIDOU 16 (C02)","OBJECT_ID":"2012-059A","EPOCH":"2022-08-19T12:26:53.261664","MEAN_MOTION":1.00271189,"ECCENTRICITY":0.0009333,"INCLINATION":2.1416,"RA_OF_ASC_NODE":84.1308,"ARG_OF_PERICENTER":303.5788,"MEAN_ANOMALY":210.9345,"EPHEMERIS_TYPE":0,"CLASSIFICATION_TYPE":"U","NORAD_CAT_ID":38953,"ELEMENT_SET_NO":999,"REV_AT_EPOCH":3589,"BSTAR":0,"MEAN_MOTION_DOT":-1.83e-6,"MEAN_MOTION_DDOT":0},{"OBJECT_NAME":"LUCH 5B (SDCM\/PRN 125)","OBJECT_ID":"2012-061A","EPOCH":"2022-08-19T08:31:29.399232","MEAN_MOTION":1.00272245,"ECCENTRICITY":0.0005932,"INCLINATION":7.4241,"RA_OF_ASC_NODE":62.1376,"ARG_OF_PERICENTER":73.321,"MEAN_ANOMALY":303.8201,"EPHEMERIS_TYPE":0,"CLASSIFICATION_TYPE":"U","NORAD_CAT_ID":38977,"ELEMENT_SET_NO":999,"REV_AT_EPOCH":3616,"BSTAR":0,"MEAN_MOTION_DOT":-1.43e-6,"MEAN_MOTION_DDOT":0},{"OBJECT_NAME":"COSMOS 2485 (747)","OBJECT_ID":"2013-019A","EPOCH":"2022-08-19T05:50:41.819712","MEAN_MOTION":2.13102058,"ECCENTRICITY":0.0021757,"INCLINATION":64.8179,"RA_OF_ASC_NODE":120.7211,"ARG_OF_PERICENTER":232.2411,"MEAN_ANOMALY":323.9644,"EPHEMERIS_TYPE":0,"CLASSIFICATION_TYPE":"U","NORAD_CAT_ID":39155,"ELEMENT_SET_NO":999,"REV_AT_EPOCH":7249,"BSTAR":0,"MEAN_MOTION_DOT":-3.8e-7,"MEAN_MOTION_DDOT":0},{"OBJECT_NAME":"GPS BIIF-4  (PRN 27)","OBJECT_ID":"2013-023A","EPOCH":"2022-08-18T04:02:45.238560","MEAN_MOTION":2.00565568,"ECCENTRICITY":0.0103964,"INCLINATION":55.6535,"RA_OF_ASC_NODE":325.3946,"ARG_OF_PERICENTER":38.619,"MEAN_ANOMALY":322.1553,"EPHEMERIS_TYPE":0,"CLASSIFICATION_TYPE":"U","NORAD_CAT_ID":39166,"ELEMENT_SET_NO":999,"REV_AT_EPOCH":6782,"BSTAR":0,"MEAN_MOTION_DOT":-1.01e-6,"MEAN_MOTION_DDOT":0},{"OBJECT_NAME":"IRNSS-1A","OBJECT_ID":"2013-034A","EPOCH":"2022-08-13T16:26:42.785952","MEAN_MOTION":1.00272368,"ECCENTRICITY":0.0019136,"INCLINATION":32.5507,"RA_OF_ASC_NODE":84.5071,"ARG_OF_PERICENTER":178.7694,"MEAN_ANOMALY":0.477,"EPHEMERIS_TYPE":0,"CLASSIFICATION_TYPE":"U","NORAD_CAT_ID":39199,"ELEMENT_SET_NO":999,"REV_AT_EPOCH":3329,"BSTAR":0,"MEAN_MOTION_DOT":6.5e-7,"MEAN_MOTION_DDOT":0},{"OBJECT_NAME":"GPS BIIF-5  (PRN 30)","OBJECT_ID":"2014-008A","EPOCH":"2022-08-19T04:00:42.067584","MEAN_MOTION":2.00557045,"ECCENTRICITY":0.0060748,"INCLINATION":53.6217,"RA_OF_ASC_NODE":206.2948,"ARG_OF_PERICENTER":209.8389,"MEAN_ANOMALY":149.7983,"EPHEMERIS_TYPE":0,"CLASSIFICATION_TYPE":"U","NORAD_CAT_ID":39533,"ELEMENT_SET_NO":999,"REV_AT_EPOCH":6164,"BSTAR":0,"MEAN_MOTION_DOT":5.7e-7,"MEAN_MOTION_DDOT":0},{"OBJECT_NAME":"ASTRA 5B (EGNOS\/PRN 123)","OBJECT_ID":"2014-011B","EPOCH":"2022-08-19T07:01:50.042784","MEAN_MOTION":1.00275776,"ECCENTRICITY":0.000441,"INCLINATION":0.0578,"RA_OF_ASC_NODE":302.5842,"ARG_OF_PERICENTER":221.8918,"MEAN_ANOMALY":300.1158,"EPHEMERIS_TYPE":0,"CLASSIFICATION_TYPE":"U","NORAD_CAT_ID":39617,"ELEMENT_SET_NO":999,"REV_AT_EPOCH":3065,"BSTAR":0,"MEAN_MOTION_DOT":1.49e-6,"MEAN_MOTION_DDOT":0},{"OBJECT_NAME":"COSMOS 2492 (754)","OBJECT_ID":"2014-012A","EPOCH":"2022-08-19T10:10:07.917600","MEAN_MOTION":2.13103228,"ECCENTRICITY":0.0010748,"INCLINATION":65.8383,"RA_OF_ASC_NODE":1.0328,"ARG_OF_PERICENTER":327.5538,"MEAN_ANOMALY":41.2805,"EPHEMERIS_TYPE":0,"CLASSIFICATION_TYPE":"U","NORAD_CAT_ID":39620,"ELEMENT_SET_NO":999,"REV_AT_EPOCH":6545,"BSTAR":0,"MEAN_MOTION_DOT":-8.4e-7,"MEAN_MOTION_DDOT":0},{"OBJECT_NAME":"IRNSS-1B","OBJECT_ID":"2014-017A","EPOCH":"2022-08-13T16:26:42.785952","MEAN_MOTION":1.00276046,"ECCENTRICITY":0.0021587,"INCLINATION":28.629,"RA_OF_ASC_NODE":264.142,"ARG_OF_PERICENTER":191.9483,"MEAN_ANOMALY":167.7247,"EPHEMERIS_TYPE":0,"CLASSIFICATION_TYPE":"U","NORAD_CAT_ID":39635,"ELEMENT_SET_NO":999,"REV_AT_EPOCH":3071,"BSTAR":0,"MEAN_MOTION_DOT":1.03e-6,"MEAN_MOTION_DDOT":0},{"OBJECT_NAME":"LUCH 5V (SDCM\/PRN 141)","OBJECT_ID":"2014-023A","EPOCH":"2022-08-19T12:30:01.615392","MEAN_MOTION":1.00268422,"ECCENTRICITY":0.0003665,"INCLINATION":1.6429,"RA_OF_ASC_NODE":76.2467,"ARG_OF_PERICENTER":93.8961,"MEAN_ANOMALY":79.857,"EPHEMERIS_TYPE":0,"CLASSIFICATION_TYPE":"U","NORAD_CAT_ID":39727,"ELEMENT_SET_NO":999,"REV_AT_EPOCH":3034,"BSTAR":0,"MEAN_MOTION_DOT":-2.74e-6,"MEAN_MOTION_DDOT":0},{"OBJECT_NAME":"GPS BIIF-6  (PRN 06)","OBJECT_ID":"2014-026A","EPOCH":"2022-08-17T10:54:59.778720","MEAN_MOTION":2.00551691,"ECCENTRICITY":0.0026237,"INCLINATION":56.5946,"RA_OF_ASC_NODE":25.8567,"ARG_OF_PERICENTER":305.6385,"MEAN_ANOMALY":54.1277,"EPHEMERIS_TYPE":0,"CLASSIFICATION_TYPE":"U","NORAD_CAT_ID":39741,"ELEMENT_SET_NO":999,"REV_AT_EPOCH":6046,"BSTAR":0,"MEAN_MOTION_DOT":-8.8e-7,"MEAN_MOTION_DDOT":0},{"OBJECT_NAME":"COSMOS 2500 (755)","OBJECT_ID":"2014-032A","EPOCH":"2022-08-19T12:46:24.269376","MEAN_MOTION":2.13102362,"ECCENTRICITY":0.0007038,"INCLINATION":65.7764,"RA_OF_ASC_NODE":0.8849,"ARG_OF_PERICENTER":183.3066,"MEAN_ANOMALY":127.2755,"EPHEMERIS_TYPE":0,"CLASSIFICATION_TYPE":"U","NORAD_CAT_ID":40001,"ELEMENT_SET_NO":999,"REV_AT_EPOCH":6366,"BSTAR":0,"MEAN_MOTION_DOT":-8.5e-7,"MEAN_MOTION_DDOT":0},{"OBJECT_NAME":"GPS BIIF-7  (PRN 09)","OBJECT_ID":"2014-045A","EPOCH":"2022-08-19T00:47:25.472544","MEAN_MOTION":2.00551532,"ECCENTRICITY":0.0021538,"INCLINATION":54.7036,"RA_OF_ASC_NODE":144.3063,"ARG_OF_PERICENTER":110.9976,"MEAN_ANOMALY":249.2544,"EPHEMERIS_TYPE":0,"CLASSIFICATION_TYPE":"U","NORAD_CAT_ID":40105,"ELEMENT_SET_NO":999,"REV_AT_EPOCH":5803,"BSTAR":0,"MEAN_MOTION_DOT":-3.1e-7,"MEAN_MOTION_DDOT":0},{"OBJECT_NAME":"GSAT0201 (PRN E18)","OBJECT_ID":"2014-050A","EPOCH":"2022-08-18T04:39:46.732896","MEAN_MOTION":1.855191,"ECCENTRICITY":0.1623503,"INCLINATION":50.2415,"RA_OF_ASC_NODE":329.8234,"ARG_OF_PERICENTER":126.2997,"MEAN_ANOMALY":249.8209,"EPHEMERIS_TYPE":0,"CLASSIFICATION_TYPE":"U","NORAD_CAT_ID":40128,"ELEMENT_SET_NO":999,"REV_AT_EPOCH":5236,"BSTAR":0,"MEAN_MOTION_DOT":-1.26e-6,"MEAN_MOTION_DDOT":0},{"OBJECT_NAME":"GSAT0202 (PRN E14)","OBJECT_ID":"2014-050B","EPOCH":"2022-08-19T12:47:37.387968","MEAN_MOTION":1.85519717,"ECCENTRICITY":0.1620471,"INCLINATION":50.2645,"RA_OF_ASC_NODE":328.8324,"ARG_OF_PERICENTER":127.1609,"MEAN_ANOMALY":248.7762,"EPHEMERIS_TYPE":0,"CLASSIFICATION_TYPE":"U","NORAD_CAT_ID":40129,"ELEMENT_SET_NO":999,"REV_AT_EPOCH":5455,"BSTAR":0,"MEAN_MOTION_DOT":-1.23e-6,"MEAN_MOTION_DDOT":0},{"OBJECT_NAME":"IRNSS-1C","OBJECT_ID":"2014-061A","EPOCH":"2022-08-19T12:26:45.727584","MEAN_MOTION":1.00275142,"ECCENTRICITY":0.0020699,"INCLINATION":3.0918,"RA_OF_ASC_NODE":126.2416,"ARG_OF_PERICENTER":2.7248,"MEAN_ANOMALY":108.6411,"EPHEMERIS_TYPE":0,"CLASSIFICATION_TYPE":"U","NORAD_CAT_ID":40269,"ELEMENT_SET_NO":999,"REV_AT_EPOCH":2867,"BSTAR":0,"MEAN_MOTION_DOT":-1.71e-6,"MEAN_MOTION_DDOT":0},{"OBJECT_NAME":"GPS BIIF-8  (PRN 03)","OBJECT_ID":"2014-068A","EPOCH":"2022-08-18T21:44:05.714016","MEAN_MOTION":2.00575998,"ECCENTRICITY":0.0042724,"INCLINATION":55.8621,"RA_OF_ASC_NODE":85.4678,"ARG_OF_PERICENTER":57.6427,"MEAN_ANOMALY":302.8419,"EPHEMERIS_TYPE":0,"CLASSIFICATION_TYPE":"U","NORAD_CAT_ID":40294,"ELEMENT_SET_NO":999,"REV_AT_EPOCH":5716,"BSTAR":0,"MEAN_MOTION_DOT":-5.5e-7,"MEAN_MOTION_DDOT":0}]